NORAD_CAT_ID,OBJECT_NAME,OBJECT_TYPE,EPOCH,MEAN_MOTION,ECCENTRICITY,INCLINATION,RA_OF_ASC_NODE,ARG_OF_PERICENTER,MEAN_ANOMALY,BSTAR,MEAN_MOTION_DOT,MEAN_MOTION_DDOT,TLE_LINE0,TLE_LINE1,TLE_LINE2,SEMIMAJOR_AXIS,PERIOD,APOGEE,PERIGEE,DECAYED
51151.0,STARLINK-3361,PAYLOAD,2022-02-25 00:00:00,15.59795228,0.0001508,53.2172,91.9754,46.4899,141.4616,-0.0080126,-0.00607742,0.0,0 STARLINK-3361,1 51151U 22005AZ  22056.00001157 -.00607742  00000-0 -80126-2 0  9998,2 51151  53.2172  91.9754 0001508  46.4899 141.4616 15.59795228  7131,6766.386,92.32,389.272,387.231,0.0
51151.0,STARLINK-3361,PAYLOAD,2022-02-25 14:00:01,15.59011984,0.0001333,53.2172,89.1468,60.8306,163.7504,-0.0089376,-0.00654052,0.0,0 STARLINK-3361,1 51151U 22005AZ  22056.58334491 -.00654052  00000-0 -89376-2 0  9993,2 51151  53.2172  89.1468 0001333  60.8306 163.7504 15.59011984  7224,6768.651999999999,92.366,391.42,389.615,0.0
51151.0,STARLINK-3361,PAYLOAD,2022-02-25 22:00:00,15.5854536,0.0001266,53.2175,87.5294,54.8249,241.3557,-0.0091027,-0.0065436,0.0,0 STARLINK-3361,1 51151U 22005AZ  22056.91667824 -.00654360  00000-0 -91027-2 0  9997,2 51151  53.2175  87.5294 0001266  54.8249 241.3557 15.58545360  3697,6770.003000000002,92.394,392.725,391.011,0.0
51151.0,STARLINK-3361,PAYLOAD,2022-02-26 14:00:01,15.57613834,0.0001193,53.2171,84.3039,57.2672,20.4258,-0.0094611,-0.00656364,0.0,0 STARLINK-3361,1 51151U 22005AZ  22057.58334491 -.00656364  00000-0 -94611-2 0  9990,2 51151  53.2171  84.3039 0001193  57.2672  20.4258 15.57613834  7375,6772.7019999999975,92.449,395.375,393.759,0.0
51151.0,STARLINK-3361,PAYLOAD,2022-02-26 22:00:00,15.57146289,0.0001419,53.2171,82.6899,49.7236,97.8873,-0.0096104,-0.00655214,0.0,0 STARLINK-3361,1 51151U 22005AZ  22057.91667824 -.00655214  00000-0 -96104-2 0  9998,2 51151  53.2171  82.6899 0001419  49.7236  97.8873 15.57146289  3690,6774.058000000001,92.477,396.884,394.962,0.0
51151.0,STARLINK-3361,PAYLOAD,2022-02-27 14:00:01,15.56215019,0.0001268,53.2172,79.471,58.5707,227.1887,-0.009989,-0.00657459,0.0,0 STARLINK-3361,1 51151U 22005AZ  22058.58334491 -.00657459  00000-0 -99890-2 0  9991,2 51151  53.2172  79.4710 0001268  58.5707 227.1887 15.56215019  7537,6776.76,92.532,399.484,397.766,0.0
51151.0,STARLINK-3361,PAYLOAD,2022-02-27 22:00:00,15.55745928,0.0001294,53.2174,77.8604,47.2538,306.7423,-0.010113,-0.00654348,0.0,0 STARLINK-3361,1 51151U 22005AZ  22058.91667824 -.00654348  00000-0 -10113-1 0  9991,2 51151  53.2174  77.8604 0001294  47.2538 306.7423 15.55745928  3700,6778.121999999999,92.56,400.864,399.11,0.0
51151.0,STARLINK-3361,PAYLOAD,2022-02-28 14:00:01,15.54814775,0.0001312,53.2172,74.6481,56.0203,72.7607,-0.010514,-0.00656998,0.0,0 STARLINK-3361,1 51151U 22005AZ  22059.58334491 -.00656998  00000-0 -10514-1 0  9994,2 51151  53.2172  74.6481 0001312  56.0203  72.7607 15.54814775  3692,6780.828,92.616,403.583,401.80300000000005,0.0
51151.0,STARLINK-3361,PAYLOAD,2022-02-28 22:00:00,15.54347719,0.0001591,53.2172,73.0409,45.6527,149.68200000000004,-0.010685,-0.00656384,0.0,0 STARLINK-3361,1 51151U 22005AZ  22059.91667824 -.00656384  00000-0 -10685-1 0  9998,2 51151  53.2172  73.0409 0001591  45.6527 149.6820 15.54347719  7747,6782.186,92.643,405.13,402.972,0.0
51151.0,STARLINK-3361,PAYLOAD,2022-03-01 14:00:01,15.53416044,0.0001221,53.2172,69.8355,58.9972,267.7587,-0.011089,-0.00658115,0.0,0 STARLINK-3361,1 51151U 22005AZ  22060.58334491 -.00658115  00000-0 -11089-1 0  9997,2 51151  53.2172  69.8355 0001221  58.9972 267.7587 15.53416044  3689,6784.898,92.699,407.591,405.934,0.0
51151.0,STARLINK-3361,PAYLOAD,2022-03-01 22:00:01,15.52946608,0.0001298,53.2172,68.2318,48.9692,342.7244,-0.011215,-0.00654599,0.0,0 STARLINK-3361,1 51151U 22005AZ  22060.91668981 -.00654599  00000-0 -11215-1 0  9991,2 51151  53.2172  68.2318 0001298  48.9692 342.7244 15.52946608  7897,6786.265,92.727,409.011,407.249,0.0
51151.0,STARLINK-3361,PAYLOAD,2022-03-02 14:00:01,15.52015501,0.0001440999999999,53.2171,65.033,53.5229,106.1631,-0.011649,-0.00657154,0.0,0 STARLINK-3361,1 51151U 22005AZ  22061.58334491 -.00657154  00000-0 -11649-1 0  9992,2 51151  53.2171  65.0330 0001441  53.5229 106.1631 15.52015501  3676,6788.979,92.783,411.822,409.866,0.0
51151.0,STARLINK-3361,PAYLOAD,2022-03-02 20:00:01,15.5166334,0.0001453,53.2172,63.8326,44.301,72.8306,-0.011723,-0.00653297,0.0,0 STARLINK-3361,1 51151U 22005AZ  22061.83334491 -.00653297  00000-0 -11723-1 0  9997,2 51151  53.2172  63.8326 0001453  44.3010  72.8306 15.51663340  8039,6790.005999999999,92.804,412.858,410.885,0.0
51151.0,STARLINK-3361,PAYLOAD,2022-03-02 22:00:00,15.51548362,0.0001501999999999,53.2172,63.4326,52.215,170.66099999999997,-0.011832,-0.00656392,0.0,0 STARLINK-3361,1 51151U 22005AZ  22061.91667824 -.00656392  00000-0 -11832-1 0  9995,2 51151  53.2172  63.4326 0001502  52.2150 170.6610 15.51548362  3691,6790.342,92.811,413.227,411.187,0.0
51151.0,STARLINK-3361,PAYLOAD,2022-03-03 14:00:01,15.50616473,0.0001240999999999,53.2173,60.2405,56.0167,291.5528,-0.012264,-0.00657807,0.0,0 STARLINK-3361,1 51151U 22005AZ  22062.58334491 -.00657807  00000-0 -12264-1 0  9992,2 51151  53.2173  60.2405 0001241  56.0167 291.5528 15.50616473  3694,6793.062,92.866,415.77,414.084,0.0
51151.0,STARLINK-3361,PAYLOAD,2022-03-03 18:00:00,15.50383717,0.0001506999999999,53.2175,59.4419,45.9577,152.4351,-0.012361,-0.00657578,0.0,0 STARLINK-3361,1 51151U 22005AZ  22062.75001157 -.00657578  00000-0 -12361-1 0  9994,2 51151  53.2175  59.4419 0001507  45.9577 152.4351 15.50383717  8188,6793.7419999999975,92.88,416.631,414.583,0.0
51151.0,STARLINK-3361,PAYLOAD,2022-03-03 22:00:00,15.50147556,0.0001431999999999,53.2174,58.6436,43.7656,5.3127,-0.012405,-0.00654617,0.0,0 STARLINK-3361,1 51151U 22005AZ  22062.91667824 -.00654617  00000-0 -12405-1 0  9991,2 51151  53.2174  58.6436 0001432  43.7656   5.3127 15.50147556  3695,6794.432,92.894,417.27,415.324,0.0
51151.0,STARLINK-3361,PAYLOAD,2022-03-04 14:00:01,15.49081328,0.0001486,53.2172,55.4585,46.3281,124.1656,-0.0037113,-0.00200052,0.0,0 STARLINK-3361,1 51151U 22005AZ  22063.58335648 -.00200052  00000-0 -37113-2 0  9995,2 51151  53.2172  55.4585 0001486  46.3281 124.1656 15.49081328  8318,6797.549,92.958,420.424,418.404,0.0
51151.0,STARLINK-3361,PAYLOAD,2022-03-04 20:00:03,15.48948398,0.0001512,53.2172,54.2639,43.88,81.59,-1.7901e-05,-1.429e-05,0.0,0 STARLINK-3361,1 51151U 22005AZ  22063.83336806 -.00001429  00000-0 -17901-4 0  9992,2 51151  53.2172  54.2639 0001512  43.8800  81.5900 15.48948398  8343,6797.938,92.966,420.831,418.775,0.0
51151.0,STARLINK-3361,PAYLOAD,2022-03-04 22:00:00,15.48949545,0.0001561,53.2173,53.86600000000001,48.4755,181.812,-5.3785e-05,-3.399e-05,0.0,0 STARLINK-3361,1 51151U 22005AZ  22063.91667824 -.00003399  00000-0 -53785-4 0  9996,2 51151  53.2173  53.8660 0001561  48.4755 181.8120 15.48949545  3682,6797.935,92.966,420.861,418.739,0.0
51151.0,STARLINK-3361,PAYLOAD,2022-03-05 06:00:00,15.48948929,0.000162,53.2174,52.2772,46.6937,243.3809,-3.9254e-05,-2.601e-05,0.0,0 STARLINK-3361,1 51151U 22005AZ  22064.25001157 -.00002601  00000-0 -39254-4 0  9995,2 51151  53.2174  52.2772 0001620  46.6937 243.3809 15.48948929  3737,6797.937,92.966,420.903,418.7,0.0
51151.0,STARLINK-3361,PAYLOAD,2022-03-05 14:00:01,15.49078225,0.0001384,53.2155,50.6939,46.3019,303.8314,0.00060572,0.00033109,0.0,0 STARLINK-3361,1 51151U 22005AZ  22064.58334491  .00033109  00000-0  60572-3 0  9992,2 51151  53.2155  50.6939 0001384  46.3019 303.8314 15.49078225  8460,6797.558000000001,92.959,420.364,418.483,0.0
51151.0,STARLINK-3361,PAYLOAD,2022-03-05 22:00:01,15.49111133,0.0001214,53.2159,49.1014,55.6875,354.4613,-0.00045388,-0.00025432,0.0,0 STARLINK-3361,1 51151U 22005AZ  22064.91668981 -.00025432  00000-0 -45388-3 0  9993,2 51151  53.2159  49.1014 0001214  55.6875 354.4613 15.49111133  3708,6797.462,92.957,420.152,418.502,0.0
51151.0,STARLINK-3361,PAYLOAD,2022-03-06 06:00:00,15.49405068,0.000171,53.2174,47.5109,43.4692,66.5829,-0.016066,-0.00821169,0.0,0 STARLINK-3361,1 51151U 22005AZ  22065.25001157 -.00821169  00000-0 -16066-1 0  9997,2 51151  53.2174  47.5109 0001710  43.4692  66.5829 15.49405068  8567,6796.602,92.939,419.63,417.305,0.0
51151.0,STARLINK-3361,PAYLOAD,2022-03-06 14:00:01,15.48099845,0.0001256,53.2166,45.9135,31.6756,138.5455,0.0073843,0.00414902,0.0,0 STARLINK-3361,1 51151U 22005AZ  22065.58334491  .00414902  00000-0  73843-2 0  9991,2 51151  53.2166  45.9135 0001256  31.6756 138.5455 15.48099845  8627,6800.422,93.017,423.141,421.4330000000001,0.0
51151.0,STARLINK-3361,PAYLOAD,2022-03-06 22:00:00,15.48749003,0.0001425,53.2173,44.3196,51.7636,177.3096,-0.013041,-0.00654848,0.0,0 STARLINK-3361,1 51151U 22005AZ  22065.91667824 -.00654848  00000-0 -13041-1 0  9997,2 51151  53.2173  44.3196 0001425  51.7636 177.3096 15.48749003  8678,6798.522,92.978,421.355,419.418,0.0
51151.0,STARLINK-3361,PAYLOAD,2022-03-07 06:00:00,15.48282546,0.0001582,53.2174,42.731,46.7576,241.4665,-0.013286,-0.00656188,0.0,0 STARLINK-3361,1 51151U 22005AZ  22066.25001157 -.00656188  00000-0 -13286-1 0  9996,2 51151  53.2174  42.7310 0001582  46.7576 241.4665 15.48282546  8725,6799.887,93.006,422.828,420.676,0.0
51151.0,STARLINK-3361,PAYLOAD,2022-03-07 12:00:00,15.47933986,0.0001622,53.2171,41.5382,44.885,197.4191,-0.0135,-0.00658456,0.0,0 STARLINK-3361,1 51151U 22005AZ  22066.50001157 -.00658456  00000-0 -13500-1 0  9993,2 51151  53.2171  41.5382 0001622  44.8850 197.4191 15.47933986  3726,6800.908,93.027,423.876,421.67,0.0
51151.0,STARLINK-3361,PAYLOAD,2022-03-07 22:00:00,15.47347921,0.0001396999999999,53.2176,39.5509,47.4701,357.6019,-0.013653,-0.00652831,0.0,0 STARLINK-3361,1 51151U 22005AZ  22066.91667824 -.00652831  00000-0 -13653-1 0  9997,2 51151  53.2176  39.5509 0001397  47.4701 357.6019 15.47347921  3684,6802.625,93.062,425.44,423.54,0.0
